     3.04           N: GNSS NAV DATA    M: Mixed            RINEX VERSION / TYPE
CONVBIN 2.4.3                           20251018 062033 UTC PGM / RUN BY / DATE 
format: u-blox UBX                                          COMMENT             
log: D:\GPdata\10_18\NEW_1_fingure_10_18.ubx                COMMENT             
                                                            END OF HEADER       
G28 2025 10 18 08 00 00 -.636473298073D-03  .147792889038D-11  .000000000000D+00
      .122000000000D+03 -.416875000000D+02  .429517891144D-08  .189902973481D+01
     -.219792127609D-05  .426723272540D-03  .109635293484D-04  .515370555687D+04
      .547200000000D+06  .540167093277D-07  .239603362476D+01 -.465661287308D-07
      .961733538096D+00  .171875000000D+03  .505330189145D+00 -.788890003292D-08
     -.353586156854D-09  .100000000000D+01  .238800000000D+04  .000000000000D+00
      .200000000000D+01  .000000000000D+00 -.931322574615D-08  .634000000000D+03
      .540666000000D+06  .400000000000D+01
G32 2025 10 18 08 00 00 -.283840578049D-03  .145519152284D-10  .000000000000D+00
      .700000000000D+02 -.294062500000D+02  .489448958942D-08 -.687460890408D+00
     -.151246786118D-05  .874753796961D-02  .379420816898D-05  .515366695213D+04
      .547200000000D+06 -.614672899246D-07  .136647268428D+01  .128522515297D-06
      .965973064450D+00  .309875000000D+03 -.205872600508D+01 -.853214111221D-08
     -.242867259253D-09  .100000000000D+01  .238800000000D+04  .000000000000D+00
      .200000000000D+01  .000000000000D+00  .931322574615D-09  .700000000000D+02
      .540666000000D+06  .400000000000D+01
G31 2025 10 18 08 00 00 -.187165103853D-03  .181898940355D-11  .000000000000D+00
      .310000000000D+02 -.378125000000D+02  .442054127614D-08  .101558999090D+01
     -.178068876266D-05  .108891476411D-01  .114366412163D-04  .515373860550D+04
      .547200000000D+06 -.173225998878D-06  .244696413900D+01 -.204890966415D-07
      .954613534823D+00  .162187500000D+03  .892719985645D+00 -.804533512050D-08
     -.416803075807D-09  .100000000000D+01  .238800000000D+04  .000000000000D+00
      .200000000000D+01  .000000000000D+00 -.130385160446D-07  .310000000000D+02
      .540666000000D+06  .400000000000D+01
G26 2025 10 18 08 00 00 -.270036049187D-03 -.352429196937D-11  .000000000000D+00
      .290000000000D+02  .773125000000D+02  .515021452711D-08  .430799086088D+00
      .416487455368D-05  .105598798255D-01  .867061316967D-05  .515365239906D+04
      .547200000000D+06 -.409781932831D-07 -.290731523822D+01  .266358256340D-06
      .929147702046D+00  .195718750000D+03  .662173555581D+00 -.850785438628D-08
      .361443627006D-09  .100000000000D+01  .238800000000D+04  .000000000000D+00
      .200000000000D+01  .000000000000D+00  .651925802231D-08  .290000000000D+02
      .540666000000D+06  .400000000000D+01
G25 2025 10 18 08 00 00  .466353259981D-03 -.193267624127D-11  .000000000000D+00
      .310000000000D+02  .703437500000D+02  .472126808834D-08  .130436269491D+01
      .358931720257D-05  .125371791655D-01  .900216400623D-05  .515379105949D+04
      .547200000000D+06 -.262632966042D-06 -.283537267361D+01  .111758708954D-07
      .948360404137D+00  .200187500000D+03  .113302908979D+01 -.838606359892D-08
      .359657838335D-09  .100000000000D+01  .238800000000D+04  .000000000000D+00
      .200000000000D+01  .000000000000D+00  .558793544769D-08  .310000000000D+02
      .540666000000D+06  .400000000000D+01
G10 2025 10 18 08 00 00 -.547937117517D-03 -.625277607469D-11  .000000000000D+00
      .290000000000D+02  .633437500000D+02  .401445293236D-08  .593708647148D+00
      .349059700966D-05  .106807013508D-01  .827759504318D-05  .515364850235D+04
      .547200000000D+06 -.484287738800D-07  .338275770086D+00  .117346644402D-06
      .991417259205D+00  .236843750000D+03 -.231004901422D+01 -.798640409436D-08
      .251796202608D-09  .100000000000D+01  .238800000000D+04  .000000000000D+00
      .200000000000D+01  .000000000000D+00  .232830643654D-08  .290000000000D+02
      .540666000000D+06  .400000000000D+01
G29 2025 10 18 08 00 00 -.439058989286D-03  .568434188608D-11  .000000000000D+00
      .123000000000D+03 -.244687500000D+02  .486091676241D-08 -.152925285024D+01
     -.150501728058D-05  .330387277063D-02  .394321978092D-05  .515357638931D+04
      .547200000000D+06  .186264514923D-08 -.169092496986D+01 -.782310962677D-07
      .963544828173D+00  .308781250000D+03  .279132250448D+01 -.843035115796D-08
     -.675028117631D-10  .100000000000D+01  .238800000000D+04  .000000000000D+00
      .280000000000D+01  .000000000000D+00 -.977888703346D-08  .123000000000D+03
      .540666000000D+06  .400000000000D+01
G03 2025 10 18 07 59 44  .660202931613D-03 -.591171556152D-11  .000000000000D+00
      .270000000000D+02  .648750000000D+02  .391837750187D-08  .151044533696D+01
      .320933759212D-05  .633759738412D-02  .875070691109D-05  .515369595146D+04
      .547184000000D+06 -.121071934700D-06  .340783192656D+00 -.108033418655D-06
      .991851149004D+00  .226281250000D+03  .123219759560D+01 -.779746765297D-08
      .418946022212D-09  .100000000000D+01  .238800000000D+04  .000000000000D+00
      .200000000000D+01  .000000000000D+00  .139698386192D-08  .270000000000D+02
      .540636000000D+06  .400000000000D+01
G12 2025 10 18 08 00 00 -.601559877396D-03 -.909494701773D-12  .000000000000D+00
      .220000000000D+02  .736562500000D+02  .448232956416D-08  .133941957808D+01
      .373832881451D-05  .883385119960D-02  .821240246296D-05  .515362097549D+04
      .547200000000D+06 -.135973095894D-06 -.274309447100D+01 -.189989805222D-06
      .960049457525D+00  .219843750000D+03  .152029755626D+01 -.818819821418D-08
      .467519474063D-09  .100000000000D+01  .238800000000D+04  .000000000000D+00
      .200000000000D+01  .000000000000D+00 -.125728547573D-07  .220000000000D+02
      .540666000000D+06  .400000000000D+01
C22 2025 10 18 06 00 00  .400648685172D-03  .452882176205D-11  .000000000000D+00
      .100000000000D+01  .339062500000D+02  .373408411102D-08  .160077676719D+01
      .152783468366D-05  .637273769826D-03  .403635203838D-05  .528262573242D+04
      .540000000000D+06  .651925802231D-08  .878046058577D+00 -.405125319958D-07
      .984815752135D+00  .294656250000D+03  .921403875393D+00 -.693528888262D-08
      .131791203918D-09  .000000000000D+00  .103200000000D+04  .000000000000D+00
      .200000000000D+01  .000000000000D+00  .157000000000D-07  .157000000000D-07
      .540600000000D+06  .100000000000D+01
C36 2025 10 18 06 00 00  .310829491355D-03 -.204281036531D-13  .000000000000D+00
      .100000000000D+01  .447187500000D+02  .377980030100D-08  .210118784748D+01
      .216066837311D-05  .597645412199D-03  .120918266475D-04  .528266141319D+04
      .540000000000D+06 -.586733222008D-07  .296179996167D+01  .251457095146D-07
      .946040180954D+00  .108468750000D+03 -.849455895065D+00 -.672420866171D-08
      .192150860997D-09  .000000000000D+00  .103200000000D+04  .000000000000D+00
      .200000000000D+01  .000000000000D+00 -.190000000000D-07 -.190000000000D-07
      .540600000000D+06  .100000000000D+01
C21 2025 10 18 06 00 00 -.943813589402D-03  .805222555300D-11  .000000000000D+00
      .100000000000D+01  .410468750000D+02  .373015537594D-08  .178629508494D+01
      .200420618057D-05  .445796642452D-03  .403216108680D-05  .528262387848D+04
      .540000000000D+06 -.447034835815D-07  .878117852745D+00 -.307336449623D-07
      .984806079320D+00  .292687500000D+03 -.440810586445D-01 -.690921636802D-08
      .190007914592D-09  .000000000000D+00  .103200000000D+04  .000000000000D+00
      .200000000000D+01  .000000000000D+00  .133000000000D-07  .133000000000D-07
      .540600000000D+06  .100000000000D+01
C19 2025 10 18 06 00 00 -.943305552937D-03 -.125588428546D-11  .000000000000D+00
      .100000000000D+01  .332656250000D+02  .378658629795D-08 -.236160160219D+01
      .155111774802D-05  .576413236558D-03  .367499887943D-05  .528262534523D+04
      .540000000000D+06  .121071934700D-07  .876784290271D+00 -.256113708019D-07
      .985533939582D+00  .298546875000D+03 -.602621180037D+00 -.696564729003D-08
      .142505935944D-09  .000000000000D+00  .103200000000D+04  .000000000000D+00
      .200000000000D+01  .000000000000D+00  .116000000000D-07  .116000000000D-07
      .540600000000D+06  .100000000000D+01
C06 2025 10 18 06 00 00  .817769905552D-03 -.311883852078D-10  .000000000000D+00
      .100000000000D+01 -.127859375000D+03  .457519057505D-09 -.275742425683D+01
     -.435486435890D-05  .500146823470D-02  .314153730869D-04  .649303943634D+04
      .540000000000D+06 -.157859176397D-06  .251960017212D+01  .168569386005D-06
      .947756846563D+00 -.735515625000D+03 -.252281106811D+01 -.164792578558D-08
     -.368229623956D-09  .000000000000D+00  .103200000000D+04  .000000000000D+00
      .200000000000D+01  .000000000000D+00  .840000000000D-08 -.160000000000D-08
      .540600000000D+06  .000000000000D+00
C16 2025 10 18 06 00 00 -.901796389371D-03 -.385851350870D-10  .000000000000D+00
      .100000000000D+01 -.137093750000D+03  .398945189097D-09 -.298702947466D+01
     -.465894117951D-05  .907904026099D-02  .314079225063D-04  .649343175888D+04
      .540000000000D+06 -.191386789083D-06  .251970305330D+01  .987201929092D-07
      .963320192713D+00 -.733453125000D+03 -.217479332569D+01 -.158613749756D-08
     -.389659088008D-09  .000000000000D+00  .103200000000D+04  .000000000000D+00
      .200000000000D+01  .000000000000D+00  .114000000000D-07  .189000000000D-07
      .540600000000D+06  .000000000000D+00
